COMMENT,ORIGINATOR,NORAD_CAT_ID,OBJECT_NAME,OBJECT_TYPE,CLASSIFICATION_TYPE,INTLDES,EPOCH,EPOCH_MICROSECONDS,MEAN_MOTION,ECCENTRICITY,INCLINATION,RA_OF_ASC_NODE,ARG_OF_PERICENTER,MEAN_ANOMALY,EPHEMERIS_TYPE,ELEMENT_SET_NO,REV_AT_EPOCH,BSTAR,MEAN_MOTION_DOT,MEAN_MOTION_DDOT,FILE,TLE_LINE0,TLE_LINE1,TLE_LINE2,OBJECT_ID,OBJECT_NUMBER,SEMIMAJOR_AXIS,PERIOD,APOGEE,PERIGEE,DECAYED
"GENERATED VIA SPACETRACK.ORG API","18 SPCS","48884","SPACEBEE-101","PAYLOAD","U","21059F","2022-06-22 03:53:26","685024","15.15709971","0.0009759","97.5554","302.7018","94.3224","265.9124","0","999","5464","0.00044606","0.00008443","0","3499314","0 SPACEBEE-101","1 48884U 21059F   22173.16211441  .00008443  00000-0  44606-3 0  9996","2 48884  97.5554 302.7018 0009759  94.3224 265.9124 15.15709971 54647","2021-059F","48884","6896.961","95.005","525.557","512.095","0"
"GENERATED VIA SPACETRACK.ORG API","18 SPCS","48884","SPACEBEE-101","PAYLOAD","U","21059F","2022-06-22 08:38:38","405472","15.15713489","0.0009759","97.5554","302.8988","93.743","266.4918","0","999","5467","0.00043556","0.00008243","0","3499789","0 SPACEBEE-101","1 48884U 21059F   22173.36016673  .00008243  00000-0  43556-3 0  9999","2 48884  97.5554 302.8988 0009759  93.7430 266.4918 15.15713489 54675","2021-059F","48884","6896.950","95.005","525.546","512.085","0"
"GENERATED VIA SPACETRACK.ORG API","18 SPCS","48884","SPACEBEE-101","PAYLOAD","U","21059F","2022-06-23 08:24:36","450432","15.1573042","0.000978","97.5553","303.884","90.7774","269.4579","0","999","5482","0.00042778","0.00008099","0","3500382","0 SPACEBEE-101","1 48884U 21059F   22174.35042188  .00008099  00000-0  42778-3 0  9993","2 48884  97.5553 303.8840 0009780  90.7774 269.4579 15.15730420 54821","2021-059F","48884","6896.899","95.004","525.509","512.019","0"
"GENERATED VIA SPACETRACK.ORG API","18 SPCS","48884","SPACEBEE-101","PAYLOAD","U","21059F","2022-06-23 08:24:36","450432","15.1573042","0.000978","97.5553","303.884","90.7774","269.4579","0","999","5482","0.00042778","0.00008099","0","3500539","0 SPACEBEE-101","1 48884U 21059F   22174.35042188  .00008099  00000-0  42778-3 0  9993","2 48884  97.5553 303.8840 0009780  90.7774 269.4579 15.15730420 54821","2021-059F","48884","6896.899","95.004","525.509","512.019","0"
"GENERATED VIA SPACETRACK.ORG API","18 SPCS","48884","SPACEBEE-101","PAYLOAD","U","21059F","2022-06-23 14:44:51","787392","15.15733003","0.0009768","97.5553","304.1467","90.113","270.1222","0","999","5486","0.00037532","0.00007097","0","3501177","0 SPACEBEE-101","1 48884U 21059F   22174.61448828  .00007097  00000-0  37532-3 0  9992","2 48884  97.5553 304.1467 0009768  90.1130 270.1222 15.15733003 54864","2021-059F","48884","6896.891","95.004","525.493","512.019","0"
"GENERATED VIA SPACETRACK.ORG API","18 SPCS","48884","SPACEBEE-101","PAYLOAD","U","21059F","2022-06-24 08:10:33","672000","15.15743077","0.0009724","97.5552","304.8691","87.9653","272.2693","0","999","5497","0.0003447","0.00006513","0","3501501","0 SPACEBEE-101","1 48884U 21059F   22175.34066750  .00006513  00000-0  34470-3 0  9993","2 48884  97.5552 304.8691 0009724  87.9653 272.2693 15.15743077 54974","2021-059F","48884","6896.861","95.003","525.432","512.019","0"
"GENERATED VIA SPACETRACK.ORG API","18 SPCS","48884","SPACEBEE-101","PAYLOAD","U","21059F","2022-06-24 20:51:03","930336","15.1574813","0.0009702","97.5552","305.3945","86.3853","273.8489","0","999","5505","0.00028412","0.00005357","0","3501798","0 SPACEBEE-101","1 48884U 21059F   22175.86879549  .00005357  00000-0  28412-3 0  9992","2 48884  97.5552 305.3945 0009702  86.3853 273.8489 15.15748130 55058","2021-059F","48884","6896.845","95.003","525.402","512.019","0"
"GENERATED VIA SPACETRACK.ORG API","18 SPCS","48884","SPACEBEE-101","PAYLOAD","U","21059F","2022-06-24 20:51:03","930336","15.1574813","0.0009702","97.5552","305.3945","86.3853","273.8489","0","999","5505","0.00028412","0.00005357","0","3501868","0 SPACEBEE-101","1 48884U 21059F   22175.86879549  .00005357  00000-0  28412-3 0  9992","2 48884  97.5552 305.3945 0009702  86.3853 273.8489 15.15748130 55058","2021-059F","48884","6896.845","95.003","525.402","512.019","0"
"GENERATED VIA SPACETRACK.ORG API","18 SPCS","48884","SPACEBEE-101","PAYLOAD","U","21059F","2022-06-25 07:56:30","236928","15.15754789","0.0009662","97.5553","305.8541","84.9602","275.2733","0","999","5512","0.00032828","0.00006202","0","3502315","0 SPACEBEE-101","1 48884U 21059F   22176.33090552  .00006202  00000-0  32828-3 0  9990","2 48884  97.5553 305.8541 0009662  84.9602 275.2733 15.15754789 55120","2021-059F","48884","6896.825","95.002","525.354","512.026","0"
"GENERATED VIA SPACETRACK.ORG API","18 SPCS","48884","SPACEBEE-101","PAYLOAD","U","21059F","2022-06-25 22:12:03","827520","15.15762956","0.0009612","97.5554","306.445","83.1765","277.0561","0","999","5521","0.00035811","0.00006773","0","3502557","0 SPACEBEE-101","1 48884U 21059F   22176.92504430  .00006773  00000-0  35811-3 0  9998","2 48884  97.5554 306.4450 0009612  83.1765 277.0561 15.15762956 55217","2021-059F","48884","6896.800","95.002","525.294","512.036","0"
"GENERATED VIA SPACETRACK.ORG API","18 SPCS","48884","SPACEBEE-101","PAYLOAD","U","21059F","2022-06-26 02:57:14","945760","15.15768344","0.0009606","97.5555","306.642","82.5436","277.6888","0","999","5524","0.0004571","0.00008668","0","3502676","0 SPACEBEE-101","1 48884U 21059F   22177.12308965  .00008668  00000-0  45710-3 0  9990","2 48884  97.5555 306.6420 0009606  82.5436 277.6888 15.15768344 55246","2021-059F","48884","6896.784","95.001","525.274","512.024","0"
"GENERATED VIA SPACETRACK.ORG API","18 SPCS","48884","SPACEBEE-101","PAYLOAD","U","21059F","2022-06-26 07:42:26","35488","15.15771299","0.0009597","97.5555","306.839","81.9491","278.283","0","999","5527","0.00045572","0.00008642","0","3503181","0 SPACEBEE-101","1 48884U 21059F   22177.32113467  .00008642  00000-0  45572-3 0  9991","2 48884  97.5555 306.8390 0009597  81.9491 278.2830 15.15771299 55277","2021-059F","48884","6896.775","95.001","525.259","512.021","0"
"GENERATED VIA SPACETRACK.ORG API","18 SPCS","48884","SPACEBEE-101","PAYLOAD","U","21059F","2022-06-26 20:22:55","453152","15.15777997","0.000957","97.5558","307.3643","80.3604","279.8709","0","999","5535","0.00041413","0.00007848","0","3503441","0 SPACEBEE-101","1 48884U 21059F   22177.84925293  .00007848  00000-0  41413-3 0  9993","2 48884  97.5558 307.3643 0009570  80.3604 279.8709 15.15777997 55359","2021-059F","48884","6896.755","95.001","525.220","512.019","0"
"GENERATED VIA SPACETRACK.ORG API","18 SPCS","48884","SPACEBEE-101","PAYLOAD","U","21059F","2022-06-27 07:28:20","976960","15.15784766","0.0009527","97.556","307.8239","79.0551","281.1752","0","999","5542","0.0004032","0.0000764","0","3503743","0 SPACEBEE-101","1 48884U 21059F   22178.31135390  .00007640  00000-0  40320-3 0  9993","2 48884  97.5560 307.8239 0009527  79.0551 281.1752 15.15784766 55420","2021-059F","48884","6896.734","95.000","525.170","512.029","0"
"GENERATED VIA SPACETRACK.ORG API","18 SPCS","48884","SPACEBEE-101","PAYLOAD","U","21059F","2022-06-27 07:28:20","976960","15.15784766","0.0009527","97.556","307.8239","79.0551","281.1752","0","999","5542","0.0004032","0.0000764","0","3503902","0 SPACEBEE-101","1 48884U 21059F   22178.31135390  .00007640  00000-0  40320-3 0  9993","2 48884  97.5560 307.8239 0009527  79.0551 281.1752 15.15784766 55420","2021-059F","48884","6896.734","95.000","525.170","512.029","0"
"GENERATED VIA SPACETRACK.ORG API","18 SPCS","48884","SPACEBEE-101","PAYLOAD","U","21059F","2022-06-27 20:08:49","949664","15.15790196","0.0009528","97.5563","308.3493","77.537","282.6928","0","999","5550","0.00031094","0.00005876","0","3504144","0 SPACEBEE-101","1 48884U 21059F   22178.83946701  .00005876  00000-0  31094-3 0  9993","2 48884  97.5563 308.3493 0009528  77.5370 282.6928 15.15790196 55508","2021-059F","48884","6896.718","95.000","525.154","512.011","0"
"GENERATED VIA SPACETRACK.ORG API","18 SPCS","48884","SPACEBEE-101","PAYLOAD","U","21059F","2022-06-28 07:14:15","133056","15.15795355","0.0009524","97.5565","308.809","76.2207","284.0085","0","999","5557","0.00027142","0.00005121","0","3504789","0 SPACEBEE-101","1 48884U 21059F   22179.30156404  .00005121  00000-0  27142-3 0  9991","2 48884  97.5565 308.8090 0009524  76.2207 284.0085 15.15795355 55578","2021-059F","48884","6896.702","95.000","525.135","511.999","0"
"GENERATED VIA SPACETRACK.ORG API","18 SPCS","48884","SPACEBEE-101","PAYLOAD","U","21059F","2022-06-28 21:29:47","337792","15.15801549","0.0009542","97.5567","309.4003","74.4499","285.7786","0","999","5566","0.00025689","0.00004844","0","3504942","0 SPACEBEE-101","1 48884U 21059F   22179.89568678  .00004844  00000-0  25689-3 0  9990","2 48884  97.5567 309.4003 0009542  74.4499 285.7786 15.15801549 55663","2021-059F","48884","6896.683","94.999","525.129","511.967","0"
"GENERATED VIA SPACETRACK.ORG API","18 SPCS","48884","SPACEBEE-101","PAYLOAD","U","21059F","2022-06-29 08:35:12","244704","15.15806218","0.0009546","97.5569","309.86","73.0739","287.1539","0","999","5573","0.00024257","0.0000457","0","3505485","0 SPACEBEE-101","1 48884U 21059F   22180.35778061  .00004570  00000-0  24257-3 0  9998","2 48884  97.5569 309.8600 0009546  73.0739 287.1539 15.15806218 55736","2021-059F","48884","6896.669","94.999","525.118","511.950","0"
"GENERATED VIA SPACETRACK.ORG API","18 SPCS","48884","SPACEBEE-101","PAYLOAD","U","21059F","2022-06-29 21:15:40","595328","15.15809934","0.0009514","97.557","310.3856","71.5206","288.7059","0","999","5581","0.00020689","0.00003888","0","3505610","0 SPACEBEE-101","1 48884U 21059F   22180.88588652  .00003888  00000-0  20689-3 0  9997","2 48884  97.5570 310.3856 0009514  71.5206 288.7059 15.15809934 55816","2021-059F","48884","6896.658","94.999","525.084","511.961","0"
